OID_,FID_Garage_Points_buffered,OID1,CIT_CODE,FAC_CODE,LotName,AggieMap,Name,LotType,ORIG_FID,X,Y,BUFF_DIST,FID_Buildings,Number,Abbrev,Private,Type,Bldg,BldgAbbr,BldgName,YearBuilt,NumFloors,Address,City,Zip,MapDisplay,Shape_Length,Shape_Area
-1,1,,20200,SSG,Southside Garage,1,SSG,Garage,1,-96.333619999999996,30.613730000000000,300.000000000000000,108,0406,LEON,No,HOUSING TAMU,0406,LEON,Leonard Hall - Dorm 7,1938,04,695 Military Mall,College Station,77843,Leonard Hall - Dorm 7 | LEON | 0406,76.482279097814185,290.935852164609514
-1,1,,20200,SSG,Southside Garage,1,SSG,Garage,1,-96.333619999999996,30.613730000000000,300.000000000000000,134,0402,BRIG,No,HOUSING TAMU,0402,BRIG,Briggs Hall - Dorm 3,1938,04,635 Military Mall,College Station,77843,Briggs Hall - Dorm 3 | BRIG | 0402,52.443122262110634,42.649420482852122
-1,1,,20200,SSG,Southside Garage,1,SSG,Garage,1,-96.333619999999996,30.613730000000000,300.000000000000000,135,0394,UNDE,No,HOUSING TAMU,0394,UNDE,Underwood Residence Hall,1981,04,644 Mosher Ln,College Station,77843,Underwood Residence Hall | UNDE | 0394,216.412153699207778,1512.998766626623137
-1,1,,20200,SSG,Southside Garage,1,SSG,Garage,1,-96.333619999999996,30.613730000000000,300.000000000000000,141,0404,GAIN,No,HOUSING TAMU,0404,GAIN,Gainer Hall - Dorm 5,1938,05,665 Military Mall,College Station,77843,Gainer Hall - Dorm 5 | GAIN | 0404,163.552058775535613,846.864698784032953
-1,1,,20200,SSG,Southside Garage,1,SSG,Garage,1,-96.333619999999996,30.613730000000000,300.000000000000000,156, ,,No,UNIVERSITY,,,,,,,,, |  | ,26.326796029663306,36.038078966827584
-1,1,,20200,SSG,Southside Garage,1,SSG,Garage,1,-96.333619999999996,30.613730000000000,300.000000000000000,157, ,,No,UNIVERSITY,,,,,,,,, |  | ,43.152372507712570,106.546471645377139
-1,1,,20200,SSG,Southside Garage,1,SSG,Garage,1,-96.333619999999996,30.613730000000000,300.000000000000000,316,0378,SSPG,No,GARAGE,0378,SSPG,South Side Parking Garage,1990,04,750 Bizzell St,College Station,77843,South Side Parking Garage | SSPG | 0378,553.269233016415569,14543.691412792895790
-1,1,,20200,SSG,Southside Garage,1,SSG,Garage,1,-96.333619999999996,30.613730000000000,300.000000000000000,323, ,,No,UNIVERSITY,,,,,,,,, |  | ,26.657592586517040,37.546402861319265
-1,1,,20200,SSG,Southside Garage,1,SSG,Garage,1,-96.333619999999996,30.613730000000000,300.000000000000000,391,0448,ADAM,No,ACADEMIC,0448,ADAM,Adams Band Hall,1970,03,611 Lewis St,College Station,77843,Adams Band Hall | ADAM | 0448,199.909648315140856,2016.182274167475271
-1,1,,20200,SSG,Southside Garage,1,SSG,Garage,1,-96.333619999999996,30.613730000000000,300.000000000000000,785,0433,MOSH,No,HOUSING TAMU,0433,MOSH,Mosher Residence Hall,1976,05,725 Mosher Ln,College Station,77843,Mosher Residence Hall | MOSH | 0433,93.381676397587654,265.685844883685149
-1,1,,20200,SSG,Southside Garage,1,SSG,Garage,1,-96.333619999999996,30.613730000000000,300.000000000000000,798,0655,,No,UNIVERSITY,0655,,Golf Course Maintenance Shop,1975,01,835 Bizzell St,College Station,77843,Golf Course Maintenance Shop |  | 0655,109.959428716632360,603.390233060794912
-1,1,,20200,SSG,Southside Garage,1,SSG,Garage,1,-96.333619999999996,30.613730000000000,300.000000000000000,803,0291,RUDD,No,HOUSING TAMU,0291,RUDD,Rudder Residence Hall,1989,04,770 Mosher Ln,College Station,77843,Rudder Residence Hall | RUDD | 0291,224.495554419911457,1513.751613030865883
-1,1,,20200,SSG,Southside Garage,1,SSG,Garage,1,-96.333619999999996,30.613730000000000,300.000000000000000,809,0290,WELL,No,HOUSING TAMU,0290,WELL,Wells Residence Hall,1989,04,700 Mosher Ln,College Station,77843,Wells Residence Hall | WELL | 0290,225.198744381093604,1525.245640559282037
-1,1,,20200,SSG,Southside Garage,1,SSG,Garage,1,-96.333619999999996,30.613730000000000,300.000000000000000,824,0654,,No,UNIVERSITY,0654,,Generator Shed,1994,01,835 Bizzell St,College Station,77843,Generator Shed |  | 0654,17.751107943914402,19.180765507807699
-1,1,,20200,SSG,Southside Garage,1,SSG,Garage,1,-96.333619999999996,30.613730000000000,300.000000000000000,829,0292,EPPR,No,HOUSING TAMU,0292,EPPR,Eppright Residence Hall,1989,04,695 Spence St,College Station,77843,Eppright Residence Hall | EPPR | 0292,224.739731568358167,1519.106543999993846
-1,1,,20200,SSG,Southside Garage,1,SSG,Garage,1,-96.333619999999996,30.613730000000000,300.000000000000000,832,0293,APPE,No,HOUSING TAMU,0293,APPE,Appelt Residence Hall,1989,04,660 Mosher Ln,College Station,77843,Appelt Residence Hall | APPE | 0293,215.426690642644473,1650.908672250454856
-1,1,,20200,SSG,Southside Garage,1,SSG,Garage,1,-96.333619999999996,30.613730000000000,300.000000000000000,841,0450,DCAN,No,DINING,0450,DCAN,Duncan Dining Hall,1940,03,777 Military Mall,College Station,77843,Duncan Dining Hall | DCAN | 0450,331.147239684743397,4316.318685090902363
-1,1,,20200,SSG,Southside Garage,1,SSG,Garage,1,-96.333619999999996,30.613730000000000,300.000000000000000,842,0393,LIND,No,ACADEMIC,0393,LIND,John H. Lindsey Building,1983,01,646 Lewis St,College Station,77843,John H. Lindsey Building | LIND | 0393,237.522676323788232,2348.508097694446406
-1,1,,20200,SSG,Southside Garage,1,SSG,Garage,1,-96.333619999999996,30.613730000000000,300.000000000000000,1113,1403,ASH,No,HOUSING TAMU,1403,ASH1,"H. Grady Ash, Jr. '58 Leadership Learning Center",2014,04,693 Military Mall,College Station,77843,"H. Grady Ash, Jr. '58 Leadership Learning Center | ASH | 1403",90.309261442534009,340.665142451517852
-1,1,,20200,SSG,Southside Garage,1,SSG,Garage,1,-96.333619999999996,30.613730000000000,300.000000000000000,1121,1440,,No,UNIVERSITY,1440,,Golf Cart Storage Building,2013,01,837 Bizzell St,College Station,77843,Golf Cart Storage Building |  | 1440,158.495853863143282,817.542490015821386
-1,1,,20200,SSG,Southside Garage,1,SSG,Garage,1,-96.333619999999996,30.613730000000000,300.000000000000000,1312,0408,WHTE,No,HOUSING TAMU,0408,WHTE,Whitely Hall - Dorm 9,1938,05,735 Military Mall,College Station,77843,Whitely Hall - Dorm 9 | WHTE | 0408,67.889769687008922,148.342823629053726
-1,1,,20200,SSG,Southside Garage,1,SSG,Garage,1,-96.333619999999996,30.613730000000000,300.000000000000000,1313,0410,HARR,No,HOUSING TAMU,0410,HARR,Harrington Hall - Dorm 11,1938,05,767 Military Mall,College Station,77843,Harrington Hall - Dorm 11 | HARR | 0410,195.779993257729927,976.469022622100624
-1,2,,20400,CCG,Central Campus Garage,1,CCG,Garage Visitor,2,-96.337770000000006,30.616499999999998,300.000000000000000,105,0468,LIBR,No,LIBRARY,0468,LIBR,Evans Library,1929,07,400 Spence St,College Station,77843,Evans Library | LIBR | 0468,827.207332586349708,12497.067417096524878
-1,2,,20400,CCG,Central Campus Garage,1,CCG,Garage Visitor,2,-96.337770000000006,30.616499999999998,300.000000000000000,106,0400,SPEN,No,HOUSING TAMU,0400,SPEN,Spence Hall - Dorm 1,1938,04,605 Military Mall,College Station,77843,Spence Hall - Dorm 1 | SPEN | 0400,63.095921811001631,131.781676731583474
-1,2,,20400,CCG,Central Campus Garage,1,CCG,Garage Visitor,2,-96.337770000000006,30.616499999999998,300.000000000000000,212,0357,,No,UNIVERSITY,0357,,Vending Machine Booth,1999,01,408 Spence St,College Station,77843,Vending Machine Booth |  | 0357,31.084954464558805,54.451907776893499
-1,2,,20400,CCG,Central Campus Garage,1,CCG,Garage Visitor,2,-96.337770000000006,30.616499999999998,300.000000000000000,299,0441,KRUE,No,HOUSING TAMU,0441,KRUE,Krueger Residence Hall,1972,04,722 Lubbock St,College Station,77843,Krueger Residence Hall | KRUE | 0441,283.249677866285936,1641.723458441292451
-1,2,,20400,CCG,Central Campus Garage,1,CCG,Garage Visitor,2,-96.337770000000006,30.616499999999998,300.000000000000000,374, ,,No,UNIVERSITY,,,,,,,,, |  | ,82.301017406773369,212.469998430610758
-1,2,,20400,CCG,Central Campus Garage,1,CCG,Garage Visitor,2,-96.337770000000006,30.616499999999998,300.000000000000000,426,0432,ARCC,No,ACADEMIC,0432,ARCC,Architecture Building C,1963,04,788 Ross St,College Station,77843,Architecture Building C | ARCC | 0432,50.205294859317277,106.097734710411927
-1,2,,20400,CCG,Central Campus Garage,1,CCG,Garage Visitor,2,-96.337770000000006,30.616499999999998,300.000000000000000,427,0359,ARCB,No,ACADEMIC,0359,ARCB,Architecture Building B,1963,02,782 Ross St,College Station,77843,Architecture Building B | ARCB | 0359,69.924590507153752,281.743828616899748
-1,2,,20400,CCG,Central Campus Garage,1,CCG,Garage Visitor,2,-96.337770000000006,30.616499999999998,300.000000000000000,428,0469,CCPG,No,GARAGE,0469,CCPG,Central Campus Parking Garage,1999,08,450 Spence St,College Station,77843,Central Campus Parking Garage | CCPG | 0469,225.223941799298444,2792.717644242938604
-1,2,,20400,CCG,Central Campus Garage,1,CCG,Garage Visitor,2,-96.337770000000006,30.616499999999998,300.000000000000000,648,0353,HRBB,No,ACADEMIC,0353,HRBB,Bright Building,1989,09,710 Ross St,College Station,77843,Bright Building | HRBB | 0353,167.459204229096372,1061.276194722250921
-1,2,,20400,CCG,Central Campus Garage,1,CCG,Garage Visitor,2,-96.337770000000006,30.616499999999998,300.000000000000000,654,0398,ARCA,No,ACADEMIC,0398,ARCA,Langford Architecture Center Building A,1977,05,798 Ross St,College Station,77843,Langford Architecture Center Building A | ARCA | 0398,250.539304895080960,3459.510289020980508
-1,2,,20400,CCG,Central Campus Garage,1,CCG,Garage Visitor,2,-96.337770000000006,30.616499999999998,300.000000000000000,655,0473,ADMN,No,ACADEMIC,0473,ADMN,Jack K. Williams Administration Building,1932,04,400 Bizzell St,College Station,77843,Jack K. Williams Administration Building | ADMN | 0473,189.534429156849370,1671.753907177732117
-1,2,,20400,CCG,Central Campus Garage,1,CCG,Garage Visitor,2,-96.337770000000006,30.616499999999998,300.000000000000000,663,0478,SCTS,No,ACADEMIC,0478,SCTS,Scoates Hall,1932,03,333 Spence St,College Station,77843,Scoates Hall | SCTS | 0478,271.758965779256073,2105.906077672389529
-1,2,,20400,CCG,Central Campus Garage,1,CCG,Garage Visitor,2,-96.337770000000006,30.616499999999998,300.000000000000000,665,0376,CHAN,No,ACADEMIC,0376,CHAN,Chemistry,1990,06,646 Ross St,College Station,77843,Chemistry | CHAN | 0376,238.908576521781526,2194.059826851361322
-1,2,,20400,CCG,Central Campus Garage,1,CCG,Garage Visitor,2,-96.337770000000006,30.616499999999998,300.000000000000000,666,0484,CHEM,No,ACADEMIC,0484,CHEM,Chemistry,1929,07,580 Ross St,College Station,77843,Chemistry | CHEM | 0484,607.208875569607358,3720.178513952590492
-1,2,,20400,CCG,Central Campus Garage,1,CCG,Garage Visitor,2,-96.337770000000006,30.616499999999998,300.000000000000000,667,0715,,No,ACADEMIC,0715,,Chemistry Chemical Storage,1955,01,610 Ross St,College Station,77843,Chemistry Chemical Storage |  | 0715,38.604729510189308,84.798127271784281
-1,2,,20400,CCG,Central Campus Garage,1,CCG,Garage Visitor,2,-96.337770000000006,30.616499999999998,300.000000000000000,673,0443,OMB,No,ACADEMIC,0443,OMB,Eller Oceanography & Meteorology Building,1973,16,797 Lamar St,College Station,77843,Eller Oceanography & Meteorology Building | OMB | 0443,160.554421180340739,1490.377284635236038
-1,2,,20400,CCG,Central Campus Garage,1,CCG,Garage Visitor,2,-96.337770000000006,30.616499999999998,300.000000000000000,675,0477,ANTH,No,ACADEMIC,0477,ANTH,Anthropology Building,1952,03,340 Spence St,College Station,77843,Anthropology Building | ANTH | 0477,221.671614649676343,1622.662522669791315
-1,2,,20400,CCG,Central Campus Garage,1,CCG,Garage Visitor,2,-96.337770000000006,30.616499999999998,300.000000000000000,679,0445,TEAG,No,ACADEMIC,0445,TEAG,Teague Research Center,1966,05,735 Lamar St,College Station,77843,Teague Research Center | TEAG | 0445,134.544885631449404,923.169164056589693
-1,2,,20400,CCG,Central Campus Garage,1,CCG,Garage Visitor,2,-96.337770000000006,30.616499999999998,300.000000000000000,680,0517,CSA,No,ACADEMIC,0517,CSA,Computing Services Annex,1966,05,733 Lamar St,College Station,77843,Computing Services Annex | CSA | 0517,183.124378602354227,907.290258809844204
-1,2,,20400,CCG,Central Campus Garage,1,CCG,Garage Visitor,2,-96.337770000000006,30.616499999999998,300.000000000000000,681,0470,GLAS,No,ACADEMIC,0470,GLAS,Melbern G. Glasscock Building,1921,04,398 Spence St,College Station,77843,Melbern G. Glasscock Building | GLAS | 0470,137.136724273129403,924.017867031880087
-1,2,,20400,CCG,Central Campus Garage,1,CCG,Garage Visitor,2,-96.337770000000006,30.616499999999998,300.000000000000000,682,0476,FRAN,No,ACADEMIC,0476,FRAN,Francis Hall,1922,03,574 Ross St,College Station,77843,Francis Hall | FRAN | 0476,220.723261048312395,1226.346652322079080
-1,2,,20400,CCG,Central Campus Garage,1,CCG,Garage Visitor,2,-96.337770000000006,30.616499999999998,300.000000000000000,683,0472,AIEN,No,ACADEMIC,0472,AIEN,AI Engineering Building,1932,06,423 Spence St,College Station,77843,AI Engineering Building | AIEN | 0472,259.348537184743464,1623.047236011247378
-1,2,,20400,CCG,Central Campus Garage,1,CCG,Garage Visitor,2,-96.337770000000006,30.616499999999998,300.000000000000000,688,0516,CSC,No,ACADEMIC,0516,CSC,Computing Services Center,1959,03,731 Lamar St,College Station,77843,Computing Services Center | CSC | 0516,196.088239970534744,2097.825091022943525
-1,2,,20400,CCG,Central Campus Garage,1,CCG,Garage Visitor,2,-96.337770000000006,30.616499999999998,300.000000000000000,694,0471,PAV,No,ACADEMIC,0471,PAV,Pavilion,1916,02,424 Spence St,College Station,77843,Pavilion | PAV | 0471,184.005770012222740,1881.498376552994614
-1,2,,20400,CCG,Central Campus Garage,1,CCG,Garage Visitor,2,-96.337770000000006,30.616499999999998,300.000000000000000,746,0438,HECC,No,ACADEMIC,0438,HECC,Harrington Education Center Classroom Building,1974,03,544 Ross St,College Station,77843,Harrington Education Center Classroom Building | HECC | 0438,187.662830057720498,2138.169625381518927
-1,2,,20400,CCG,Central Campus Garage,1,CCG,Garage Visitor,2,-96.337770000000006,30.616499999999998,300.000000000000000,751,0457,TAES,No,ACADEMIC,0457,TAES,TAES Annex Building,1933,02,730 Lamar St,College Station,77843,TAES Annex Building | TAES | 0457,165.121665985379110,1000.212167366724088
-1,2,,20400,CCG,Central Campus Garage,1,CCG,Garage Visitor,2,-96.337770000000006,30.616499999999998,300.000000000000000,753,0435,EDCT,No,ACADEMIC,0435,EDCT,Harrington Education Center Office Tower,1973,10,540 Ross St,College Station,77843,Harrington Education Center Office Tower | EDCT | 0435,131.796938413064396,821.596739795061922
-1,2,,20400,CCG,Central Campus Garage,1,CCG,Garage Visitor,2,-96.337770000000006,30.616499999999998,300.000000000000000,758,0511,HLB,No,ACADEMIC,0511,HLB,HEEP Laboratory Building,1957,05,645 Lamar St,College Station,77843,HEEP Laboratory Building | HLB | 0511,177.169433411507555,1303.347759855226514
-1,2,,20400,CCG,Central Campus Garage,1,CCG,Garage Visitor,2,-96.337770000000006,30.616499999999998,300.000000000000000,766,0440,COMM,No,DINING,0440,COMM,Commons,1972,02,676 Lubbock St,College Station,77843,Commons | COMM | 0440,188.050711031164070,1509.121608893570965
-1,2,,20400,CCG,Central Campus Garage,1,CCG,Garage Visitor,2,-96.337770000000006,30.616499999999998,300.000000000000000,772,0444,PETR,No,ACADEMIC,0444,PETR,Peterson Building,1963,05,435 Nagle St,College Station,77843,Peterson Building | PETR | 0444,231.857884274675740,1741.796376654744563
-1,2,,20400,CCG,Central Campus Garage,1,CCG,Garage Visitor,2,-96.337770000000006,30.616499999999998,300.000000000000000,775,0467,BSBE,No,ACADEMIC,0467,BSBE,Biological Sciences Bldg East,1950,03,424 Nagle St,College Station,77843,Biological Sciences Bldg East | BSBE | 0467,215.772820562622456,1896.558349525025505
-1,2,,20400,CCG,Central Campus Garage,1,CCG,Garage Visitor,2,-96.337770000000006,30.616499999999998,300.000000000000000,776,0449,BSBW,No,ACADEMIC,0449,BSBW,Biological Sciences Bldg West,1967,05,424 Nagle St,College Station,77843,Biological Sciences Bldg West | BSBW | 0449,178.560819008470190,1776.888565979138775
-1,2,,20400,CCG,Central Campus Garage,1,CCG,Garage Visitor,2,-96.337770000000006,30.616499999999998,300.000000000000000,782,0462,ACAD,No,ACADEMIC,0462,ACAD,Academic Building,1914,06,377 Houston St,College Station,77843,Academic Building | ACAD | 0462,174.483603385238723,1032.283716910591920
-1,2,,20400,CCG,Central Campus Garage,1,CCG,Garage Visitor,2,-96.337770000000006,30.616499999999998,300.000000000000000,789,0442,DUNN,No,HOUSING TAMU,0442,DUNN,Dunn Residence Hall,1972,04,636 Lubbock St,College Station,77843,Dunn Residence Hall | DUNN | 0442,421.064979692510747,2656.289924127243012
-1,2,,20400,CCG,Central Campus Garage,1,CCG,Garage Visitor,2,-96.337770000000006,30.616499999999998,300.000000000000000,795,0464,STCH,No,ACADEMIC,0464,STCH,State Chemist Building,1909,03,533 Coke St,College Station,77843,State Chemist Building | STCH | 0464,115.418157630974974,683.513185220970968
-1,2,,20400,CCG,Central Campus Garage,1,CCG,Garage Visitor,2,-96.337770000000006,30.616499999999998,300.000000000000000,800,0447,ASTO,No,HOUSING TAMU,0447,ASTO,Aston Residence Hall,1976,04,655 Mosher Ln,College Station,77843,Aston Residence Hall | ASTO | 0447,111.200622333163409,396.018421772047759
-1,2,,20400,CCG,Central Campus Garage,1,CCG,Garage Visitor,2,-96.337770000000006,30.616499999999998,300.000000000000000,806,0506,NGLE,No,ACADEMIC,0506,NGLE,Nagle Hall,1909,05,454 Throckmorton St,College Station,77843,Nagle Hall | NGLE | 0506,48.778419239921931,83.122108589080639
-1,2,,20400,CCG,Central Campus Garage,1,CCG,Garage Visitor,2,-96.337770000000006,30.616499999999998,300.000000000000000,807,0521,HELD,No,ACADEMIC,0521,HELD,Heldenfels Hall,1977,05,466 Nagle St,College Station,77843,Heldenfels Hall | HELD | 0521,272.293332605195417,2644.744504881559351
-1,2,,20400,CCG,Central Campus Garage,1,CCG,Garage Visitor,2,-96.337770000000006,30.616499999999998,300.000000000000000,812,0465,BTLR,No,ACADEMIC,0465,BTLR,Butler Hall,1916,04,525 Lubbock St,College Station,77843,Butler Hall | BTLR | 0465,113.890510765063638,687.361098376080236
-1,2,,20400,CCG,Central Campus Garage,1,CCG,Garage Visitor,2,-96.337770000000006,30.616499999999998,300.000000000000000,826,0463,PSYC,No,ACADEMIC,0463,PSYC,Psychology Building,1920,04,515 Coke St,College Station,77843,Psychology Building | PSYC | 0463,198.889547056860295,1287.223732293163494
-1,2,,20400,CCG,Central Campus Garage,1,CCG,Garage Visitor,2,-96.337770000000006,30.616499999999998,300.000000000000000,913, ,,No,UNIVERSITY,,,,,,,,, |  | ,23.512798263909946,26.207879287083220
-1,2,,20400,CCG,Central Campus Garage,1,CCG,Garage Visitor,2,-96.337770000000006,30.616499999999998,300.000000000000000,952,0356,,No,UNIVERSITY,0356,,Parking Booth At PA35,1997,01,704 Lamar St,College Station,77843,Parking Booth At PA35 |  | 0356,18.692476291035810,19.428307991555155
-1,2,,20400,CCG,Central Campus Garage,1,CCG,Garage Visitor,2,-96.337770000000006,30.616499999999998,300.000000000000000,1024,0275,LAAH,No,ACADEMIC,0275,LAAH,Liberal Arts and Arts & Humanities Building,2012,05,399 Spence St,College Station,77843,Liberal Arts and Arts & Humanities Building | LAAH | 0275,282.795870186969580,2322.429456121611111
-1,2,,20400,CCG,Central Campus Garage,1,CCG,Garage Visitor,2,-96.337770000000006,30.616499999999998,300.000000000000000,1153,0458,EABC,No,ACADEMIC,0458,EABC,Engineering Activities Bldg C,1954,01,588 Lamar St,College Station,77843,Engineering Activities Bldg C | EABC | 0458,253.184836640487788,1067.469614565525944
-1,2,,20400,CCG,Central Campus Garage,1,CCG,Garage Visitor,2,-96.337770000000006,30.616499999999998,300.000000000000000,1154,0459,EABB,No,ACADEMIC,0459,EABB,Engineering Activities Bldg B,1949,01,620 Lamar St,College Station,77843,Engineering Activities Bldg B | EABB | 0459,177.583635913374110,710.746859951109059
-1,2,,20400,CCG,Central Campus Garage,1,CCG,Garage Visitor,2,-96.337770000000006,30.616499999999998,300.000000000000000,1155,0460,EABA,No,ACADEMIC,0460,EABA,Engineering Activities Bldg A,1954,01,646 Lamar St,College Station,77843,Engineering Activities Bldg A | EABA | 0460,266.774918766416306,1122.180721467789226
-1,2,,20400,CCG,Central Campus Garage,1,CCG,Garage Visitor,2,-96.337770000000006,30.616499999999998,300.000000000000000,1309,1405,ASH2,No,HOUSING TAMU,1405,ASH2,"Ash, II Leadership Learning Center",2016,04,621 Military Mall,College Station,77843,"Ash, II Leadership Learning Center | ASH2 | 1405",26.889555863669941,35.741648309762461
-1,2,,20400,CCG,Central Campus Garage,1,CCG,Garage Visitor,2,-96.337770000000006,30.616499999999998,300.000000000000000,1316,,,No,UNIVERSITY,,,,,,,,, |  | ,34.827179585731585,68.316977228508975
-1,2,,20400,CCG,Central Campus Garage,1,CCG,Garage Visitor,2,-96.337770000000006,30.616499999999998,300.000000000000000,1318,,,No,UNIVERSITY,,,,,,,,, |  | ,7.016298092269743,0.769024586548986
-1,2,,20400,CCG,Central Campus Garage,1,CCG,Garage Visitor,2,-96.337770000000006,30.616499999999998,300.000000000000000,1363,,,No,OTHER,,,,,,,,, |  | ,43.777540774210877,88.862951171795061
-1,3,,20100,NSG,Northside Garage,1,NSG,Garage Visitor,3,-96.343410000000006,30.619240000000001,300.000000000000000,179,0117,POST,Yes,FEDERAL,0117,,North Gate Post Office Building,,01,,College Station,77843,North Gate Post Office Building | POST | 0117,148.019619816343692,1095.126692147984386
-1,3,,20100,NSG,Northside Garage,1,NSG,Garage Visitor,3,-96.343410000000006,30.619240000000001,300.000000000000000,284,0495,SBSA,No,DINING,0495,SBSA,Sbisa Dining Hall,1912,02,233 Houston St,College Station,77843,Sbisa Dining Hall | SBSA | 0495,357.825210379893235,5435.880492262195730
-1,3,,20100,NSG,Northside Garage,1,NSG,Garage Visitor,3,-96.343410000000006,30.619240000000001,300.000000000000000,285,0420,MILN,No,ACADEMIC,0420,MILN,Milner Hall,1911,04,425 Ross St,College Station,77843,Milner Hall | MILN | 0420,133.452340018183719,1011.124879544568898
-1,3,,20100,NSG,Northside Garage,1,NSG,Garage Visitor,3,-96.343410000000006,30.619240000000001,300.000000000000000,365, ,,No,UNIVERSITY,,,,,,,,, |  | ,13.863381110134927,11.840986502698273
-1,3,,20100,NSG,Northside Garage,1,NSG,Garage Visitor,3,-96.343410000000006,30.619240000000001,300.000000000000000,366, ,,No,UNIVERSITY,,,,,,,,, |  | ,30.712294458640869,38.130140555833499
-1,3,,20100,NSG,Northside Garage,1,NSG,Garage Visitor,3,-96.343410000000006,30.619240000000001,300.000000000000000,625,0718,,No,UNIVERSITY,0718,,Storage-Cyclotron,1971,01,154 Spence St,College Station,77843,Storage-Cyclotron |  | 0718,28.266073091085747,47.949971998131900
-1,3,,20100,NSG,Northside Garage,1,NSG,Garage Visitor,3,-96.343410000000006,30.619240000000001,300.000000000000000,629,0717,,No,ACADEMIC,0717,,Storage and Lab-Cyclotron,1971,01,176 Spence St,College Station,77843,Storage and Lab-Cyclotron |  | 0717,79.779468052712133,287.136214508460796
-1,3,,20100,NSG,Northside Garage,1,NSG,Garage Visitor,3,-96.343410000000006,30.619240000000001,300.000000000000000,630,0434,CYCL,No,ACADEMIC,0434,CYCL,Luedecke Building (Cyclotron),1966,04,120 Spence St,College Station,77843,Luedecke Building (Cyclotron) | CYCL | 0434,274.632435362161402,3392.471261063764814
-1,3,,20100,NSG,Northside Garage,1,NSG,Garage Visitor,3,-96.343410000000006,30.619240000000001,300.000000000000000,636,0392,MEOB,No,ACADEMIC,0392,MEOB,Mechanical Engineering Office Building,1986,06,202 Spence St,College Station,77843,Mechanical Engineering Office Building | MEOB | 0392,96.884222596598605,592.876418336090978
-1,3,,20100,NSG,Northside Garage,1,NSG,Garage Visitor,3,-96.343410000000006,30.619240000000001,300.000000000000000,637,0391,ENPH,No,ACADEMIC,0391,ENPH,James J. Cain '51 Building,1986,05,180 Spence St,College Station,77843,James J. Cain '51 Building | ENPH | 0391,257.828627985332218,2577.137675675043283
-1,3,,20100,NSG,Northside Garage,1,NSG,Garage Visitor,3,-96.343410000000006,30.619240000000001,300.000000000000000,638,0547,,No,UNIVERSITY,0547,,Break Room at Central Utility Plant,1980,01,193 Asbury St,College Station,77843,Break Room at Central Utility Plant |  | 0547,36.554605219506108,75.483814384469710
-1,3,,20100,NSG,Northside Garage,1,NSG,Garage Visitor,3,-96.343410000000006,30.619240000000001,300.000000000000000,643,0524,BLOC,No,ACADEMIC,0524,BLOC,Blocker Building,1981,06,155 Ireland St,College Station,77843,Blocker Building | BLOC | 0524,318.466963894845151,4980.971831259501414
-1,3,,20100,NSG,Northside Garage,1,NSG,Garage Visitor,3,-96.343410000000006,30.619240000000001,300.000000000000000,651,0388,NSPG,No,GARAGE,0388,NSPG,Northside Parking Garage,1989,05,104 Ireland St,College Station,77843,Northside Parking Garage | NSPG | 0388,419.517477022954438,10097.479709268145598
-1,3,,20100,NSG,Northside Garage,1,NSG,Garage Visitor,3,-96.343410000000006,30.619240000000001,300.000000000000000,652,0514,MASS,No,ACADEMIC,0514,MASS,Munnerlyn Astronomy & Space Sciences Engineering,1960,02,101 Asbury St,College Station,77843,Munnerlyn Astronomy & Space Sciences Engineering | MASS | 0514,136.310770291640807,997.652190332989903
-1,3,,20100,NSG,Northside Garage,1,NSG,Garage Visitor,3,-96.343410000000006,30.619240000000001,300.000000000000000,656,0490,HALB,No,ACADEMIC,0490,HALB,Halbouty Geosciences Building,1933,06,611 Ross St,College Station,77843,Halbouty Geosciences Building | HALB | 0490,311.502341804362459,2133.778059888083135
-1,3,,20100,NSG,Northside Garage,1,NSG,Garage Visitor,3,-96.343410000000006,30.619240000000001,300.000000000000000,659,0496,UCO,No,OTHER,0496,UCO,Utilities & Energy Services Central Office,1940,02,165 Asbury St,College Station,77843,Utilities & Energy Services Central Office | UCO | 0496,247.993884619570963,2056.827932537109973
-1,3,,20100,NSG,Northside Garage,1,NSG,Garage Visitor,3,-96.343410000000006,30.619240000000001,300.000000000000000,660,0498,CUP,No,OTHER,0498,CUP,Central Utility Plant,1915,03,222 Ireland St,College Station,77843,Central Utility Plant | CUP | 0498,414.374615810726368,4956.013462519374116
-1,3,,20100,NSG,Northside Garage,1,NSG,Garage Visitor,3,-96.343410000000006,30.619240000000001,300.000000000000000,664,0499,EIC,No,ACADEMIC,0499,EIC,Engineering Innovation Center,1955,01,233 Ireland St,College Station,77843,Engineering Innovation Center | EIC | 0499,256.424266569890108,2966.598431937475198
-1,3,,20100,NSG,Northside Garage,1,NSG,Garage Visitor,3,-96.343410000000006,30.619240000000001,300.000000000000000,668,0436,RDMC,No,ACADEMIC,0436,RDMC,Reed-McDonald Building,1967,05,575 Ross St,College Station,77843,Reed-McDonald Building | RDMC | 0436,183.506373562424699,1551.620368197272228
-1,3,,20100,NSG,Northside Garage,1,NSG,Garage Visitor,3,-96.343410000000006,30.619240000000001,300.000000000000000,669,0424,HOTA,No,ACADEMIC,0424,HOTA,Hotard Hall,1941,05,110 Asbury St,College Station,77843,Hotard Hall | HOTA | 0424,106.831011799489204,485.438972281355007
-1,3,,20100,NSG,Northside Garage,1,NSG,Garage Visitor,3,-96.343410000000006,30.619240000000001,300.000000000000000,670,9351,,No,UNIVERSITY,9351,,Water Tower,1979,01,191 Asbury St,College Station,77843,Water Tower |  | 9351,98.222584216824572,706.330367672778948
-1,3,,20100,NSG,Northside Garage,1,NSG,Garage Visitor,3,-96.343410000000006,30.619240000000001,300.000000000000000,672, ,,No,UNIVERSITY,,,,,,,,, |  | ,70.477317248401590,269.279031795572507
-1,3,,20100,NSG,Northside Garage,1,NSG,Garage Visitor,3,-96.343410000000006,30.619240000000001,300.000000000000000,674,0652,NEEL,No,HOUSING TAMU,0652,NEEL,Neeley Residence Hall,1980,04,140 Asbury St,College Station,77843,Neeley Residence Hall | NEEL | 0652,252.101889444337957,1575.384235422593065
-1,3,,20100,NSG,Northside Garage,1,NSG,Garage Visitor,3,-96.343410000000006,30.619240000000001,300.000000000000000,676,0653,HOBB,No,HOUSING TAMU,0653,HOBB,Hobby Residence Hall,1980,04,160 Asbury St,College Station,77843,Hobby Residence Hall | HOBB | 0653,235.339212858736232,1405.738576576279911
-1,3,,20100,NSG,Northside Garage,1,NSG,Garage Visitor,3,-96.343410000000006,30.619240000000001,300.000000000000000,684, ,,No,UNIVERSITY,,,,,,,,, |  | ,87.748051020825685,158.163303503172870
-1,3,,20100,NSG,Northside Garage,1,NSG,Garage Visitor,3,-96.343410000000006,30.619240000000001,300.000000000000000,685, ,,No,UNIVERSITY,,,,,,,,, |  | ,126.493238820733879,852.664232524823319
-1,3,,20100,NSG,Northside Garage,1,NSG,Garage Visitor,3,-96.343410000000006,30.619240000000001,300.000000000000000,690,0483,THOM,No,ACADEMIC,0483,THOM,Thompson Hall,1921,03,510 Ross St,College Station,77843,Thompson Hall | THOM | 0483,192.472101852930280,1927.900330999405242
-1,3,,20100,NSG,Northside Garage,1,NSG,Garage Visitor,3,-96.343410000000006,30.619240000000001,300.000000000000000,691,1430,,No,HOUSING TAMU,1430,,Civilian Lounge - C1,1964,01,308 University Dr,College Station,77843,Civilian Lounge - C1 |  | 1430,36.861534700377661,57.993381633204628
-1,3,,20100,NSG,Northside Garage,1,NSG,Garage Visitor,3,-96.343410000000006,30.619240000000001,300.000000000000000,692,0430,SCHU,No,HOUSING TAMU,0430,SCHU,Schuhmacher Residence Hall,1966,05,308 University Dr,College Station,77843,Schuhmacher Residence Hall | SCHU | 0430,82.311955764471577,371.996531803114181
-1,3,,20100,NSG,Northside Garage,1,NSG,Garage Visitor,3,-96.343410000000006,30.619240000000001,300.000000000000000,748,0481,HEAT,No,ACADEMIC,0481,HEAT,Heaton Hall,1926,02,444 Ross St,College Station,77843,Heaton Hall | HEAT | 0481,88.265262230711954,414.519997925005043
-1,3,,20100,NSG,Northside Garage,1,NSG,Garage Visitor,3,-96.343410000000006,30.619240000000001,300.000000000000000,749,0422,WALT,No,HOUSING TAMU,0422,WALT,Walton Residence Hall,1931,05,166 Houston St,College Station,77843,Walton Residence Hall | WALT | 0422,110.459488443105116,473.777674424787904
-1,3,,20100,NSG,Northside Garage,1,NSG,Garage Visitor,3,-96.343410000000006,30.619240000000001,300.000000000000000,911, ,,No,UNIVERSITY,,,,,,,,, |  | ,54.655464359361801,186.697020909821333
-1,3,,20100,NSG,Northside Garage,1,NSG,Garage Visitor,3,-96.343410000000006,30.619240000000001,300.000000000000000,914, ,,No,UNIVERSITY,,,,,,,,, |  | ,96.047299619358654,481.305187288037359
-1,3,,20100,NSG,Northside Garage,1,NSG,Garage Visitor,3,-96.343410000000006,30.619240000000001,300.000000000000000,915, ,,No,UNIVERSITY,,,,,,,,, |  | ,142.374517303386085,659.786393423274490
-1,3,,20100,NSG,Northside Garage,1,NSG,Garage Visitor,3,-96.343410000000006,30.619240000000001,300.000000000000000,916, ,,No,UNIVERSITY,,,,,,,,, |  | ,74.799532442074550,281.174988548808926
-1,3,,20100,NSG,Northside Garage,1,NSG,Garage Visitor,3,-96.343410000000006,30.619240000000001,300.000000000000000,917, ,,No,UNIVERSITY,,,,,,,,, |  | ,66.909621569814448,253.916719544589171
-1,3,,20100,NSG,Northside Garage,1,NSG,Garage Visitor,3,-96.343410000000006,30.619240000000001,300.000000000000000,949,0386,CHEN,No,ACADEMIC,0386,CHEN,Jack E. Brown Chemical Engineering Building,2004,07,100 Spence St,College Station,77843,Jack E. Brown Chemical Engineering Building | CHEN | 0386,258.324372068559171,3812.215490880154903
-1,3,,20100,NSG,Northside Garage,1,NSG,Garage Visitor,3,-96.343410000000006,30.619240000000001,300.000000000000000,950,0297,MPHY,No,ACADEMIC,0297,MPHY,Mitchell Physics Building,2009,07,578 University Dr,College Station,77843,Mitchell Physics Building | MPHY | 0297,241.808484372851638,2737.417736598563351
-1,3,,20100,NSG,Northside Garage,1,NSG,Garage Visitor,3,-96.343410000000006,30.619240000000001,300.000000000000000,951,0296,MIST,No,ACADEMIC,0296,MIST,Mitchell Inst for Fundamental Phys & Astronomy,2009,07,576 University Dr,College Station,77843,Mitchell Inst for Fundamental Phys & Astronomy | MIST | 0296,109.236769688296022,774.085714141113272
-1,3,,20100,NSG,Northside Garage,1,NSG,Garage Visitor,3,-96.343410000000006,30.619240000000001,300.000000000000000,1162,8577,,No,OTHER,8577,,Flammable Materials Storage at CUP,2008,01,222 Ireland St,College Station,77843,Flammable Materials Storage at CUP |  | 8577,34.316956700569605,66.643651391108719
-1,3,,20100,NSG,Northside Garage,1,NSG,Garage Visitor,3,-96.343410000000006,30.619240000000001,300.000000000000000,1164,0289,,No,OTHER,0289,,Central Utility Plant Electrical Building,2015,01,222 Ireland St,College Station,77843,Central Utility Plant Electrical Building |  | 0289,29.165390409906085,49.194792238223563
-1,4,,20500,WCG,West Campus Garage,1,WCG,Garage Visitor,4,-96.344260000000006,30.608490000000000,300.000000000000000,410, ,,No,UNIVERSITY,,,,,,,,, |  | ,44.958542817167398,117.693409815349710
-1,4,,20500,WCG,West Campus Garage,1,WCG,Garage Visitor,4,-96.344260000000006,30.608490000000000,300.000000000000000,416,1559,WCG,No,GARAGE,1559,WCG,West Campus Parking Garage,2003,08,201 John Kimbrough Bl,College Station,77843,West Campus Parking Garage | WCG | 1559,521.195473671648756,13369.930357477715006
-1,4,,20500,WCG,West Campus Garage,1,WCG,Garage Visitor,4,-96.344260000000006,30.608490000000000,300.000000000000000,491, ,,No,UNIVERSITY,,,,,,,,, |  | ,45.889243796184203,121.061208610038022
-1,4,,20500,WCG,West Campus Garage,1,WCG,Garage Visitor,4,-96.344260000000006,30.608490000000000,300.000000000000000,495, ,,No,UNIVERSITY,,,,,,,,, |  | ,45.889243791011140,121.061576430786175
-1,4,,20500,WCG,West Campus Garage,1,WCG,Garage Visitor,4,-96.344260000000006,30.608490000000000,300.000000000000000,497, ,,No,UNIVERSITY,,,,,,,,, |  | ,45.890538871409568,121.066754764628541
-1,4,,20500,WCG,West Campus Garage,1,WCG,Garage Visitor,4,-96.344260000000006,30.608490000000000,300.000000000000000,498,1498,SUP1,No,OTHER,1498,SUP1,Satellite Utility Plant No. 1,1976,01,350 John Kimbrough Bl,College Station,77843,Satellite Utility Plant No. 1 | SUP1 | 1498,251.111669455046638,2636.689474914497623
-1,4,,20500,WCG,West Campus Garage,1,WCG,Garage Visitor,4,-96.344260000000006,30.608490000000000,300.000000000000000,503,1560,SREC,No,SPORTS,1560,SREC,Student Recreation Center,1995,04,797 Olsen Bl,College Station,77843,Student Recreation Center | SREC | 1560,958.042930476229571,25534.860159036692494
-1,4,,20500,WCG,West Campus Garage,1,WCG,Garage Visitor,4,-96.344260000000006,30.608490000000000,300.000000000000000,506,1554,REED,No,SPORTS,1554,REED,Reed Arena,1998,05,730 Olsen Bl,College Station,77843,Reed Arena | REED | 1554,196.224095756928847,1148.528558243958059
-1,4,,20500,WCG,West Campus Garage,1,WCG,Garage Visitor,4,-96.344260000000006,30.608490000000000,300.000000000000000,1165,0367,KYLE,No,SPORTS,0367,KYLE,Kyle Field,1927,09,161 Wellborn Rd,College Station,77843,Kyle Field | KYLE | 0367,139.951530605423898,603.014432616335625
-1,5,,20300,UCG,University Center Garage,1,UCG,Garage Visitor,5,-96.338650000000001,30.612050000000000,300.000000000000000,104,0377,SUP3,No,OTHER,0377,SUP3,Satellite Utility Plant No. 3,1989,01,477 Joe Routt Bl,College Station,77843,Satellite Utility Plant No. 3 | SUP3 | 0377,170.461085965271906,1775.049715544845412
-1,5,,20300,UCG,University Center Garage,1,UCG,Garage Visitor,5,-96.338650000000001,30.612050000000000,300.000000000000000,107,0401,KIES,No,HOUSING TAMU,0401,KIES,Kiest Hall - Dorm 2,1938,05,606 Military Mall,College Station,77843,Kiest Hall - Dorm 2 | KIES | 0401,60.379051060381016,205.784295566994189
-1,5,,20300,UCG,University Center Garage,1,UCG,Garage Visitor,5,-96.338650000000001,30.612050000000000,300.000000000000000,109,0407,HARL,No,HOUSING TAMU,0407,HARL,Harrell Hall - Dorm 8,1938,05,696 Military Mall,College Station,77843,Harrell Hall - Dorm 8 | HARL | 0407,139.477466672164638,698.647548117851670
-1,5,,20300,UCG,University Center Garage,1,UCG,Garage Visitor,5,-96.338650000000001,30.612050000000000,300.000000000000000,134,0402,BRIG,No,HOUSING TAMU,0402,BRIG,Briggs Hall - Dorm 3,1938,04,635 Military Mall,College Station,77843,Briggs Hall - Dorm 3 | BRIG | 0402,46.291914297745734,118.748461427679572
-1,5,,20300,UCG,University Center Garage,1,UCG,Garage Visitor,5,-96.338650000000001,30.612050000000000,300.000000000000000,151,0403,FOUN,No,HOUSING TAMU,0403,FOUN,Fountain Hall - Dorm 4,1938,05,636 Military Mall,College Station,77843,Fountain Hall - Dorm 4 | FOUN | 0403,163.792214601225766,847.455643571631413
-1,5,,20300,UCG,University Center Garage,1,UCG,Garage Visitor,5,-96.338650000000001,30.612050000000000,300.000000000000000,312,0630,PRVP,No,OTHER,0630,PRVP,Vice President's Residence,1939,02,750 Throckmorton St,College Station,77843,Vice President's Residence | PRVP | 0630,126.192574346603436,431.148270497937347
-1,5,,20300,UCG,University Center Garage,1,UCG,Garage Visitor,5,-96.338650000000001,30.612050000000000,300.000000000000000,379,0405,LACY,No,HOUSING TAMU,0405,LACY,Lacy Hall - Dorm 6,1938,04,664 Military Mall,College Station,77843,Lacy Hall - Dorm 6 | LACY | 0405,164.809871638599788,825.431727660374577
-1,5,,20300,UCG,University Center Garage,1,UCG,Garage Visitor,5,-96.338650000000001,30.612050000000000,300.000000000000000,393,0634,PRES,No,OTHER,0634,PRES,One Circle Drive,1965,02,800 Throckmorton St,College Station,77843,One Circle Drive | PRES | 0634,142.281713755903695,594.314907065631473
-1,5,,20300,UCG,University Center Garage,1,UCG,Garage Visitor,5,-96.338650000000001,30.612050000000000,300.000000000000000,423,0632,,No,UNIVERSITY,0632,,Compressor House,1970,01,790 THROCKMORTON ST,College Station,77843,Compressor House |  | 0632,15.656387518592014,15.192535370097879
-1,5,,20300,UCG,University Center Garage,1,UCG,Garage Visitor,5,-96.338650000000001,30.612050000000000,300.000000000000000,424,0635,,No,UNIVERSITY,0635,,Grounds Maintenance Storage,1973,01,788 Throckmorton St,College Station,77843,Grounds Maintenance Storage |  | 0635,15.975114650691468,15.314702083044285
-1,5,,20300,UCG,University Center Garage,1,UCG,Garage Visitor,5,-96.338650000000001,30.612050000000000,300.000000000000000,492,0361,BFC,No,SPORTS,0361,BFC,Bright Football Complex,2003,06,878 Houston St,College Station,77843,Bright Football Complex | BFC | 0361,24.832893571885982,26.769950943505350
-1,5,,20300,UCG,University Center Garage,1,UCG,Garage Visitor,5,-96.338650000000001,30.612050000000000,300.000000000000000,826,0463,PSYC,No,ACADEMIC,0463,PSYC,Psychology Building,1920,04,515 Coke St,College Station,77843,Psychology Building | PSYC | 0463,46.129198362199219,96.206180980979255
-1,5,,20300,UCG,University Center Garage,1,UCG,Garage Visitor,5,-96.338650000000001,30.612050000000000,300.000000000000000,833,0417,HART,No,HOUSING TAMU,0417,HART,Hart Residence Hall,1930,04,460 Throckmorton St,College Station,77843,Hart Residence Hall | HART | 0417,116.302501213110773,516.349181197084818
-1,5,,20300,UCG,University Center Garage,1,UCG,Garage Visitor,5,-96.338650000000001,30.612050000000000,300.000000000000000,836,0456,MILS,No,ACADEMIC,0456,MILS,Military Sciences Building,1923,04,520 Coke St,College Station,77843,Military Sciences Building | MILS | 0456,89.339315682071259,349.618625750049659
-1,5,,20300,UCG,University Center Garage,1,UCG,Garage Visitor,5,-96.338650000000001,30.612050000000000,300.000000000000000,838,0384,SCCT,No,ACADEMIC,0384,SCCT,Sam Houston Sanders Corps of Cadets Center,1992,01,475 Short St,College Station,77843,Sam Houston Sanders Corps of Cadets Center | SCCT | 0384,210.005164512090801,2037.098578006158277
-1,5,,20300,UCG,University Center Garage,1,UCG,Garage Visitor,5,-96.338650000000001,30.612050000000000,300.000000000000000,841,0450,DCAN,No,DINING,0450,DCAN,Duncan Dining Hall,1940,03,777 Military Mall,College Station,77843,Duncan Dining Hall | DCAN | 0450,112.611238813929745,132.908075405179545
-1,5,,20300,UCG,University Center Garage,1,UCG,Garage Visitor,5,-96.338650000000001,30.612050000000000,300.000000000000000,843,0383,JJKB,No,ACADEMIC,0383,JJKB,Koldus Building,1992,03,400 Joe Routt Bl,College Station,77843,Koldus Building | JJKB | 0383,468.684999251356885,5125.049384110729989
-1,5,,20300,UCG,University Center Garage,1,UCG,Garage Visitor,5,-96.338650000000001,30.612050000000000,300.000000000000000,844,0379,UCPG,No,GARAGE,0379,UCPG,University Center Parking Garage,1992,07,660 Throckmorton St,College Station,77843,University Center Parking Garage | UCPG | 0379,407.993224832277463,9714.881778517787097
-1,5,,20300,UCG,University Center Garage,1,UCG,Garage Visitor,5,-96.338650000000001,30.612050000000000,300.000000000000000,847,0363,,No,UNIVERSITY,0363,,Shed-VP Student Services,1976,01,750 Throckmorton St,College Station,77843,Shed-VP Student Services |  | 0363,12.718651021996498,10.086357494441717
-1,5,,20300,UCG,University Center Garage,1,UCG,Garage Visitor,5,-96.338650000000001,30.612050000000000,300.000000000000000,926, ,,No,UNIVERSITY,,,,,,,,, |  | ,12.424834447646591,6.819409996140896
-1,5,,20300,UCG,University Center Garage,1,UCG,Garage Visitor,5,-96.338650000000001,30.612050000000000,300.000000000000000,1008,0446,RDER,No,ACADEMIC,0446,RDER,Rudder Tower,1973,14,401 Joe Routt Bl,College Station,77843,Rudder Tower | RDER | 0446,474.405596656195314,7694.394167294829458
-1,5,,20300,UCG,University Center Garage,1,UCG,Garage Visitor,5,-96.338650000000001,30.612050000000000,300.000000000000000,1023,0454,MSC,No,ACADEMIC,0454,MSC,Memorial Student Center,1951,04,275 Joe Routt Bl,College Station,77843,Memorial Student Center | MSC | 0454,352.417982261957491,1806.155320810665671
-1,5,,20300,UCG,University Center Garage,1,UCG,Garage Visitor,5,-96.338650000000001,30.612050000000000,300.000000000000000,1045,1402,BUZB,No,HOUSING TAMU,1402,BUZB,Buzbee Leadership Learning Center,2012,05,682 Military Mall,College Station,77843,Buzbee Leadership Learning Center | BUZB | 1402,83.433900640729519,334.058466832390820
-1,5,,20300,UCG,University Center Garage,1,UCG,Garage Visitor,5,-96.338650000000001,30.612050000000000,300.000000000000000,1135,,,No,UNIVERSITY,,,,,,,,, |  | ,44.195065864206597,110.531835877826552
-1,5,,20300,UCG,University Center Garage,1,UCG,Garage Visitor,5,-96.338650000000001,30.612050000000000,300.000000000000000,1165,0367,KYLE,No,SPORTS,0367,KYLE,Kyle Field,1927,09,161 Wellborn Rd,College Station,77843,Kyle Field | KYLE | 0367,797.837924532191323,16238.752994558124556
-1,5,,20300,UCG,University Center Garage,1,UCG,Garage Visitor,5,-96.338650000000001,30.612050000000000,300.000000000000000,1308,1404,PLNK,No,HOUSING TAMU,1404,PLNK,Plank Leadership Learning Center,2016,04,622 Military Mall,College Station,77843,Plank Leadership Learning Center | PLNK | 1404,180.466278695580854,758.558265607562589
-1,5,,20300,UCG,University Center Garage,1,UCG,Garage Visitor,5,-96.338650000000001,30.612050000000000,300.000000000000000,1309,1405,ASH2,No,HOUSING TAMU,1405,ASH2,"Ash, II Leadership Learning Center",2016,04,621 Military Mall,College Station,77843,"Ash, II Leadership Learning Center | ASH2 | 1405",65.316902224924661,101.853838922901090
-1,5,,20300,UCG,University Center Garage,1,UCG,Garage Visitor,5,-96.338650000000001,30.612050000000000,300.000000000000000,1310,0409,WHIT,No,HOUSING TAMU,0409,WHIT,White Hall - Dorm 10,1938,05,736 Military Mall,College Station,77843,White Hall - Dorm 10 | WHIT | 0409,94.220933863552034,132.053447280263867
-1,5,,20300,UCG,University Center Garage,1,UCG,Garage Visitor,5,-96.338650000000001,30.612050000000000,300.000000000000000,1311,0411,UTAY,No,HOUSING TAMU,0411,UTAY,Utay Hall - Dorm 12,1938,05,766 Military Mall,College Station,77843,Utay Hall - Dorm 12 | UTAY | 0411,195.151902279626910,978.324969296372615
-1,6,,20600,CAG,Cain Garage,1,CAIN,Garage Visitor,6,-96.343549999999993,30.611490000000000,300.000000000000000,207,1530,ILSB,No,ACADEMIC,1530,ILSB,Interdisciplinary Life Sciences Building,2009,04,301 Old Main Dr,College Station,77843,Interdisciplinary Life Sciences Building | ILSB | 1530,263.644218971677674,2428.866462023760960
-1,6,,20600,CAG,Cain Garage,1,CAIN,Garage Visitor,6,-96.343549999999993,30.611490000000000,300.000000000000000,421,0350,,No,UNIVERSITY,0350,,Albritton Bell Tower,1984,06,200 Old Main Dr,College Station,77843,Albritton Bell Tower |  | 0350,31.685135712771441,62.739031182366304
-1,6,,20600,CAG,Cain Garage,1,CAIN,Garage Visitor,6,-96.343549999999993,30.611490000000000,300.000000000000000,1023,0454,MSC,No,ACADEMIC,0454,MSC,Memorial Student Center,1951,04,275 Joe Routt Bl,College Station,77843,Memorial Student Center | MSC | 0454,547.873028235843663,4313.907225756384832
-1,6,,20600,CAG,Cain Garage,1,CAIN,Garage Visitor,6,-96.343549999999993,30.611490000000000,300.000000000000000,1165,0367,KYLE,No,SPORTS,0367,KYLE,Kyle Field,1927,09,161 Wellborn Rd,College Station,77843,Kyle Field | KYLE | 0367,388.660302892748518,6043.846910850746099
-1,6,,20600,CAG,Cain Garage,1,CAIN,Garage Visitor,6,-96.343549999999993,30.611490000000000,300.000000000000000,1322,9794,,No,MECH,9794,,Wellborn Road Grade Separation,,,,,,Wellborn Road Grade Separation |  | 9794,1.947621824325342,0.234338115597124
-1,6,,20600,CAG,Cain Garage,1,CAIN,Garage Visitor,6,-96.343549999999993,30.611490000000000,300.000000000000000,1324,1544,CAIN,No,GARAGE,1544,,Cain Parking Garage,2016,05,500 Gene Stallings Bl,College Station,77843,Cain Parking Garage | CAIN | 1544,393.212028210827498,8669.738961174349242
-1,6,,20600,CAG,Cain Garage,1,CAIN,Garage Visitor,6,-96.343549999999993,30.611490000000000,300.000000000000000,1325,,,No,GARAGE,,,,,,,,, |  | ,321.674657475644835,271.851108503819489
-1,6,,20600,CAG,Cain Garage,1,CAIN,Garage Visitor,6,-96.343549999999993,30.611490000000000,300.000000000000000,1326,,,No,GARAGE,,,,,,,,, |  | ,67.408578310126330,19.600664516978682
-1,6,,20600,CAG,Cain Garage,1,CAIN,Garage Visitor,6,-96.343549999999993,30.611490000000000,300.000000000000000,1327,,,No,GARAGE,,,,,,,,, |  | ,109.925724426507998,32.610225147404577
-1,6,,20600,CAG,Cain Garage,1,CAIN,Garage Visitor,6,-96.343549999999993,30.611490000000000,300.000000000000000,1329,,,No,GARAGE,,,,,,,,, |  | ,74.730798552282678,21.524196850805019
-1,6,,20600,CAG,Cain Garage,1,CAIN,Garage Visitor,6,-96.343549999999993,30.611490000000000,300.000000000000000,1362,1545,,No,SERVICE PVT,1545,,Cain Site Hotel,,,177 Joe Routt BL,College Station,77843,Cain Site Hotel |  | 1545,311.544602477627734,4187.110970142659426
-1,1,,20200,SSG,Southside Garage,1,SSG,Garage,1,-96.333619999999996,30.613730000000000,300.000000000000000,134,0402,BRIG,No,HOUSING TAMU,0402,BRIG,Briggs Hall - Dorm 3,1938,04,635 Military Mall,College Station,77843,Briggs Hall - Dorm 3 | BRIG | 0402,85.890837154884906,336.124741903200515
-1,2,,20400,CCG,Central Campus Garage,1,CCG,Garage Visitor,2,-96.337770000000006,30.616499999999998,300.000000000000000,134,0402,BRIG,No,HOUSING TAMU,0402,BRIG,Briggs Hall - Dorm 3,1938,04,635 Military Mall,College Station,77843,Briggs Hall - Dorm 3 | BRIG | 0402,85.890837154884906,336.124741903200515
-1,1,,20200,SSG,Southside Garage,1,SSG,Garage,1,-96.333619999999996,30.613730000000000,300.000000000000000,135,0394,UNDE,No,HOUSING TAMU,0394,UNDE,Underwood Residence Hall,1981,04,644 Mosher Ln,College Station,77843,Underwood Residence Hall | UNDE | 0394,92.188853714312941,223.749246042640834
-1,2,,20400,CCG,Central Campus Garage,1,CCG,Garage Visitor,2,-96.337770000000006,30.616499999999998,300.000000000000000,135,0394,UNDE,No,HOUSING TAMU,0394,UNDE,Underwood Residence Hall,1981,04,644 Mosher Ln,College Station,77843,Underwood Residence Hall | UNDE | 0394,92.188853714312941,223.749246042640834
-1,1,,20200,SSG,Southside Garage,1,SSG,Garage,1,-96.333619999999996,30.613730000000000,300.000000000000000,299,0441,KRUE,No,HOUSING TAMU,0441,KRUE,Krueger Residence Hall,1972,04,722 Lubbock St,College Station,77843,Krueger Residence Hall | KRUE | 0441,200.680527620127975,1014.383278301589371
-1,2,,20400,CCG,Central Campus Garage,1,CCG,Garage Visitor,2,-96.337770000000006,30.616499999999998,300.000000000000000,299,0441,KRUE,No,HOUSING TAMU,0441,KRUE,Krueger Residence Hall,1972,04,722 Lubbock St,College Station,77843,Krueger Residence Hall | KRUE | 0441,200.680527620127975,1014.383278301589371
-1,1,,20200,SSG,Southside Garage,1,SSG,Garage,1,-96.333619999999996,30.613730000000000,300.000000000000000,766,0440,COMM,No,DINING,0440,COMM,Commons,1972,02,676 Lubbock St,College Station,77843,Commons | COMM | 0440,246.106996236556796,2961.925233387391017
-1,2,,20400,CCG,Central Campus Garage,1,CCG,Garage Visitor,2,-96.337770000000006,30.616499999999998,300.000000000000000,766,0440,COMM,No,DINING,0440,COMM,Commons,1972,02,676 Lubbock St,College Station,77843,Commons | COMM | 0440,246.106996236556796,2961.925233387391017
-1,1,,20200,SSG,Southside Garage,1,SSG,Garage,1,-96.333619999999996,30.613730000000000,300.000000000000000,785,0433,MOSH,No,HOUSING TAMU,0433,MOSH,Mosher Residence Hall,1976,05,725 Mosher Ln,College Station,77843,Mosher Residence Hall | MOSH | 0433,415.328126917492455,2771.331583669070369
-1,2,,20400,CCG,Central Campus Garage,1,CCG,Garage Visitor,2,-96.337770000000006,30.616499999999998,300.000000000000000,785,0433,MOSH,No,HOUSING TAMU,0433,MOSH,Mosher Residence Hall,1976,05,725 Mosher Ln,College Station,77843,Mosher Residence Hall | MOSH | 0433,415.328126917492455,2771.331583669070369
-1,1,,20200,SSG,Southside Garage,1,SSG,Garage,1,-96.333619999999996,30.613730000000000,300.000000000000000,800,0447,ASTO,No,HOUSING TAMU,0447,ASTO,Aston Residence Hall,1976,04,655 Mosher Ln,College Station,77843,Aston Residence Hall | ASTO | 0447,380.478559502432631,2382.292236771235366
-1,2,,20400,CCG,Central Campus Garage,1,CCG,Garage Visitor,2,-96.337770000000006,30.616499999999998,300.000000000000000,800,0447,ASTO,No,HOUSING TAMU,0447,ASTO,Aston Residence Hall,1976,04,655 Mosher Ln,College Station,77843,Aston Residence Hall | ASTO | 0447,380.478559502432631,2382.292236771235366
-1,1,,20200,SSG,Southside Garage,1,SSG,Garage,1,-96.333619999999996,30.613730000000000,300.000000000000000,832,0293,APPE,No,HOUSING TAMU,0293,APPE,Appelt Residence Hall,1989,04,660 Mosher Ln,College Station,77843,Appelt Residence Hall | APPE | 0293,86.353956733649639,231.665170371044979
-1,2,,20400,CCG,Central Campus Garage,1,CCG,Garage Visitor,2,-96.337770000000006,30.616499999999998,300.000000000000000,832,0293,APPE,No,HOUSING TAMU,0293,APPE,Appelt Residence Hall,1989,04,660 Mosher Ln,College Station,77843,Appelt Residence Hall | APPE | 0293,86.353956733649639,231.665170371044979
-1,1,,20200,SSG,Southside Garage,1,SSG,Garage,1,-96.333619999999996,30.613730000000000,300.000000000000000,1309,1405,ASH2,No,HOUSING TAMU,1405,ASH2,"Ash, II Leadership Learning Center",2016,04,621 Military Mall,College Station,77843,"Ash, II Leadership Learning Center | ASH2 | 1405",38.741293703211980,69.432772400757230
-1,2,,20400,CCG,Central Campus Garage,1,CCG,Garage Visitor,2,-96.337770000000006,30.616499999999998,300.000000000000000,1309,1405,ASH2,No,HOUSING TAMU,1405,ASH2,"Ash, II Leadership Learning Center",2016,04,621 Military Mall,College Station,77843,"Ash, II Leadership Learning Center | ASH2 | 1405",38.741293703211980,69.432772400757230
-1,1,,20200,SSG,Southside Garage,1,SSG,Garage,1,-96.333619999999996,30.613730000000000,300.000000000000000,1317,,,No,UNIVERSITY,,,,,,,,, |  | ,32.481584880459771,47.769560923723141
-1,2,,20400,CCG,Central Campus Garage,1,CCG,Garage Visitor,2,-96.337770000000006,30.616499999999998,300.000000000000000,1317,,,No,UNIVERSITY,,,,,,,,, |  | ,32.481584880459771,47.769560923723141
-1,1,,20200,SSG,Southside Garage,1,SSG,Garage,1,-96.333619999999996,30.613730000000000,300.000000000000000,1318,,,No,UNIVERSITY,,,,,,,,, |  | ,33.711445926905355,64.281137680917382
-1,2,,20400,CCG,Central Campus Garage,1,CCG,Garage Visitor,2,-96.337770000000006,30.616499999999998,300.000000000000000,1318,,,No,UNIVERSITY,,,,,,,,, |  | ,33.711445926905355,64.281137680917382
-1,1,,20200,SSG,Southside Garage,1,SSG,Garage,1,-96.333619999999996,30.613730000000000,300.000000000000000,1319,,,No,UNIVERSITY,,,,,,,,, |  | ,16.696575220976701,17.414829634150617
-1,2,,20400,CCG,Central Campus Garage,1,CCG,Garage Visitor,2,-96.337770000000006,30.616499999999998,300.000000000000000,1319,,,No,UNIVERSITY,,,,,,,,, |  | ,16.696575220976701,17.414829634150617
-1,1,,20200,SSG,Southside Garage,1,SSG,Garage,1,-96.333619999999996,30.613730000000000,300.000000000000000,108,0406,LEON,No,HOUSING TAMU,0406,LEON,Leonard Hall - Dorm 7,1938,04,695 Military Mall,College Station,77843,Leonard Hall - Dorm 7 | LEON | 0406,112.211455378903551,523.261283644413652
-1,5,,20300,UCG,University Center Garage,1,UCG,Garage Visitor,5,-96.338650000000001,30.612050000000000,300.000000000000000,108,0406,LEON,No,HOUSING TAMU,0406,LEON,Leonard Hall - Dorm 7,1938,04,695 Military Mall,College Station,77843,Leonard Hall - Dorm 7 | LEON | 0406,112.211455378903551,523.261283644413652
-1,1,,20200,SSG,Southside Garage,1,SSG,Garage,1,-96.333619999999996,30.613730000000000,300.000000000000000,109,0407,HARL,No,HOUSING TAMU,0407,HARL,Harrell Hall - Dorm 8,1938,05,696 Military Mall,College Station,77843,Harrell Hall - Dorm 8 | HARL | 0407,48.847993769875544,117.666423256479305
-1,5,,20300,UCG,University Center Garage,1,UCG,Garage Visitor,5,-96.338650000000001,30.612050000000000,300.000000000000000,109,0407,HARL,No,HOUSING TAMU,0407,HARL,Harrell Hall - Dorm 8,1938,05,696 Military Mall,College Station,77843,Harrell Hall - Dorm 8 | HARL | 0407,48.847993769875544,117.666423256479305
-1,1,,20200,SSG,Southside Garage,1,SSG,Garage,1,-96.333619999999996,30.613730000000000,300.000000000000000,134,0402,BRIG,No,HOUSING TAMU,0402,BRIG,Briggs Hall - Dorm 3,1938,04,635 Military Mall,College Station,77843,Briggs Hall - Dorm 3 | BRIG | 0402,75.834020893435593,226.282948229805839
-1,5,,20300,UCG,University Center Garage,1,UCG,Garage Visitor,5,-96.338650000000001,30.612050000000000,300.000000000000000,134,0402,BRIG,No,HOUSING TAMU,0402,BRIG,Briggs Hall - Dorm 3,1938,04,635 Military Mall,College Station,77843,Briggs Hall - Dorm 3 | BRIG | 0402,75.834020893435593,226.282948229805839
-1,1,,20200,SSG,Southside Garage,1,SSG,Garage,1,-96.333619999999996,30.613730000000000,300.000000000000000,841,0450,DCAN,No,DINING,0450,DCAN,Duncan Dining Hall,1940,03,777 Military Mall,College Station,77843,Duncan Dining Hall | DCAN | 0450,235.727261825682234,2571.309053323696844
-1,5,,20300,UCG,University Center Garage,1,UCG,Garage Visitor,5,-96.338650000000001,30.612050000000000,300.000000000000000,841,0450,DCAN,No,DINING,0450,DCAN,Duncan Dining Hall,1940,03,777 Military Mall,College Station,77843,Duncan Dining Hall | DCAN | 0450,235.727261825682234,2571.309053323696844
-1,1,,20200,SSG,Southside Garage,1,SSG,Garage,1,-96.333619999999996,30.613730000000000,300.000000000000000,1310,0409,WHIT,No,HOUSING TAMU,0409,WHIT,White Hall - Dorm 10,1938,05,736 Military Mall,College Station,77843,White Hall - Dorm 10 | WHIT | 0409,174.648059954460820,838.974510856229017
-1,5,,20300,UCG,University Center Garage,1,UCG,Garage Visitor,5,-96.338650000000001,30.612050000000000,300.000000000000000,1310,0409,WHIT,No,HOUSING TAMU,0409,WHIT,White Hall - Dorm 10,1938,05,736 Military Mall,College Station,77843,White Hall - Dorm 10 | WHIT | 0409,174.648059954460820,838.974510856229017
-1,1,,20200,SSG,Southside Garage,1,SSG,Garage,1,-96.333619999999996,30.613730000000000,300.000000000000000,1312,0408,WHTE,No,HOUSING TAMU,0408,WHTE,Whitely Hall - Dorm 9,1938,05,735 Military Mall,College Station,77843,Whitely Hall - Dorm 9 | WHTE | 0408,169.063135816921914,828.390663501653307
-1,5,,20300,UCG,University Center Garage,1,UCG,Garage Visitor,5,-96.338650000000001,30.612050000000000,300.000000000000000,1312,0408,WHTE,No,HOUSING TAMU,0408,WHTE,Whitely Hall - Dorm 9,1938,05,735 Military Mall,College Station,77843,Whitely Hall - Dorm 9 | WHTE | 0408,169.063135816921914,828.390663501653307
-1,2,,20400,CCG,Central Campus Garage,1,CCG,Garage Visitor,2,-96.337770000000006,30.616499999999998,300.000000000000000,104,0377,SUP3,No,OTHER,0377,SUP3,Satellite Utility Plant No. 3,1989,01,477 Joe Routt Bl,College Station,77843,Satellite Utility Plant No. 3 | SUP3 | 0377,18.939027262746357,13.539152622907908
-1,5,,20300,UCG,University Center Garage,1,UCG,Garage Visitor,5,-96.338650000000001,30.612050000000000,300.000000000000000,104,0377,SUP3,No,OTHER,0377,SUP3,Satellite Utility Plant No. 3,1989,01,477 Joe Routt Bl,College Station,77843,Satellite Utility Plant No. 3 | SUP3 | 0377,18.939027262746357,13.539152622907908
-1,2,,20400,CCG,Central Campus Garage,1,CCG,Garage Visitor,2,-96.337770000000006,30.616499999999998,300.000000000000000,106,0400,SPEN,No,HOUSING TAMU,0400,SPEN,Spence Hall - Dorm 1,1938,04,605 Military Mall,College Station,77843,Spence Hall - Dorm 1 | SPEN | 0400,145.144678249635007,736.195853930690532
-1,5,,20300,UCG,University Center Garage,1,UCG,Garage Visitor,5,-96.338650000000001,30.612050000000000,300.000000000000000,106,0400,SPEN,No,HOUSING TAMU,0400,SPEN,Spence Hall - Dorm 1,1938,04,605 Military Mall,College Station,77843,Spence Hall - Dorm 1 | SPEN | 0400,145.144678249635007,736.195853930690532
-1,2,,20400,CCG,Central Campus Garage,1,CCG,Garage Visitor,2,-96.337770000000006,30.616499999999998,300.000000000000000,107,0401,KIES,No,HOUSING TAMU,0401,KIES,Kiest Hall - Dorm 2,1938,05,606 Military Mall,College Station,77843,Kiest Hall - Dorm 2 | KIES | 0401,138.601121738451553,657.923232565560170
-1,5,,20300,UCG,University Center Garage,1,UCG,Garage Visitor,5,-96.338650000000001,30.612050000000000,300.000000000000000,107,0401,KIES,No,HOUSING TAMU,0401,KIES,Kiest Hall - Dorm 2,1938,05,606 Military Mall,College Station,77843,Kiest Hall - Dorm 2 | KIES | 0401,138.601121738451553,657.923232565560170
-1,2,,20400,CCG,Central Campus Garage,1,CCG,Garage Visitor,2,-96.337770000000006,30.616499999999998,300.000000000000000,134,0402,BRIG,No,HOUSING TAMU,0402,BRIG,Briggs Hall - Dorm 3,1938,04,635 Military Mall,College Station,77843,Briggs Hall - Dorm 3 | BRIG | 0402,15.444604042837245,6.831301610289091
-1,5,,20300,UCG,University Center Garage,1,UCG,Garage Visitor,5,-96.338650000000001,30.612050000000000,300.000000000000000,134,0402,BRIG,No,HOUSING TAMU,0402,BRIG,Briggs Hall - Dorm 3,1938,04,635 Military Mall,College Station,77843,Briggs Hall - Dorm 3 | BRIG | 0402,15.444604042837245,6.831301610289091
-1,2,,20400,CCG,Central Campus Garage,1,CCG,Garage Visitor,2,-96.337770000000006,30.616499999999998,300.000000000000000,807,0521,HELD,No,ACADEMIC,0521,HELD,Heldenfels Hall,1977,05,466 Nagle St,College Station,77843,Heldenfels Hall | HELD | 0521,46.135979470566895,67.965785403882762
-1,5,,20300,UCG,University Center Garage,1,UCG,Garage Visitor,5,-96.338650000000001,30.612050000000000,300.000000000000000,807,0521,HELD,No,ACADEMIC,0521,HELD,Heldenfels Hall,1977,05,466 Nagle St,College Station,77843,Heldenfels Hall | HELD | 0521,46.135979470566895,67.965785403882762
-1,2,,20400,CCG,Central Campus Garage,1,CCG,Garage Visitor,2,-96.337770000000006,30.616499999999998,300.000000000000000,812,0465,BTLR,No,ACADEMIC,0465,BTLR,Butler Hall,1916,04,525 Lubbock St,College Station,77843,Butler Hall | BTLR | 0465,53.629535419322792,120.345824133549812
-1,5,,20300,UCG,University Center Garage,1,UCG,Garage Visitor,5,-96.338650000000001,30.612050000000000,300.000000000000000,812,0465,BTLR,No,ACADEMIC,0465,BTLR,Butler Hall,1916,04,525 Lubbock St,College Station,77843,Butler Hall | BTLR | 0465,53.629535419322792,120.345824133549812
-1,2,,20400,CCG,Central Campus Garage,1,CCG,Garage Visitor,2,-96.337770000000006,30.616499999999998,300.000000000000000,826,0463,PSYC,No,ACADEMIC,0463,PSYC,Psychology Building,1920,04,515 Coke St,College Station,77843,Psychology Building | PSYC | 0463,98.507510044149441,264.790036935161254
-1,5,,20300,UCG,University Center Garage,1,UCG,Garage Visitor,5,-96.338650000000001,30.612050000000000,300.000000000000000,826,0463,PSYC,No,ACADEMIC,0463,PSYC,Psychology Building,1920,04,515 Coke St,College Station,77843,Psychology Building | PSYC | 0463,98.507510044149441,264.790036935161254
-1,2,,20400,CCG,Central Campus Garage,1,CCG,Garage Visitor,2,-96.337770000000006,30.616499999999998,300.000000000000000,836,0456,MILS,No,ACADEMIC,0456,MILS,Military Sciences Building,1923,04,520 Coke St,College Station,77843,Military Sciences Building | MILS | 0456,119.660245857911576,663.508559725809846
-1,5,,20300,UCG,University Center Garage,1,UCG,Garage Visitor,5,-96.338650000000001,30.612050000000000,300.000000000000000,836,0456,MILS,No,ACADEMIC,0456,MILS,Military Sciences Building,1923,04,520 Coke St,College Station,77843,Military Sciences Building | MILS | 0456,119.660245857911576,663.508559725809846
-1,2,,20400,CCG,Central Campus Garage,1,CCG,Garage Visitor,2,-96.337770000000006,30.616499999999998,300.000000000000000,1309,1405,ASH2,No,HOUSING TAMU,1405,ASH2,"Ash, II Leadership Learning Center",2016,04,621 Military Mall,College Station,77843,"Ash, II Leadership Learning Center | ASH2 | 1405",105.647116998130812,468.558170111706261
-1,5,,20300,UCG,University Center Garage,1,UCG,Garage Visitor,5,-96.338650000000001,30.612050000000000,300.000000000000000,1309,1405,ASH2,No,HOUSING TAMU,1405,ASH2,"Ash, II Leadership Learning Center",2016,04,621 Military Mall,College Station,77843,"Ash, II Leadership Learning Center | ASH2 | 1405",105.647116998130812,468.558170111706261
-1,2,,20400,CCG,Central Campus Garage,1,CCG,Garage Visitor,2,-96.337770000000006,30.616499999999998,300.000000000000000,105,0468,LIBR,No,LIBRARY,0468,LIBR,Evans Library,1929,07,400 Spence St,College Station,77843,Evans Library | LIBR | 0468,129.357584173857731,913.119972651675994
-1,2,,20400,CCG,Central Campus Garage,1,CCG,Garage Visitor,2,-96.337770000000006,30.616499999999998,300.000000000000000,1074,0468a,SCC,No,LIBRARY,,,,,,,,, | SCC | ,129.357584173857731,913.119972651675994
-1,4,,20500,WCG,West Campus Garage,1,WCG,Garage Visitor,4,-96.344260000000006,30.608490000000000,300.000000000000000,410, ,,No,UNIVERSITY,,,,,,,,, |  | ,0.748842158717160,0.021998369462949
-1,6,,20600,CAG,Cain Garage,1,CAIN,Garage Visitor,6,-96.343549999999993,30.611490000000000,300.000000000000000,410, ,,No,UNIVERSITY,,,,,,,,, |  | ,0.748842158717160,0.021998369462949
-1,4,,20500,WCG,West Campus Garage,1,WCG,Garage Visitor,4,-96.344260000000006,30.608490000000000,300.000000000000000,416,1559,WCG,No,GARAGE,1559,WCG,West Campus Parking Garage,2003,08,201 John Kimbrough Bl,College Station,77843,West Campus Parking Garage | WCG | 1559,240.465742073019811,2365.384115100841882
-1,6,,20600,CAG,Cain Garage,1,CAIN,Garage Visitor,6,-96.343549999999993,30.611490000000000,300.000000000000000,416,1559,WCG,No,GARAGE,1559,WCG,West Campus Parking Garage,2003,08,201 John Kimbrough Bl,College Station,77843,West Campus Parking Garage | WCG | 1559,240.465742073019811,2365.384115100841882
-1,4,,20500,WCG,West Campus Garage,1,WCG,Garage Visitor,4,-96.344260000000006,30.608490000000000,300.000000000000000,1165,0367,KYLE,No,SPORTS,0367,KYLE,Kyle Field,1927,09,161 Wellborn Rd,College Station,77843,Kyle Field | KYLE | 0367,247.059006988902524,2011.367870397575643
-1,6,,20600,CAG,Cain Garage,1,CAIN,Garage Visitor,6,-96.343549999999993,30.611490000000000,300.000000000000000,1165,0367,KYLE,No,SPORTS,0367,KYLE,Kyle Field,1927,09,161 Wellborn Rd,College Station,77843,Kyle Field | KYLE | 0367,247.059006988902524,2011.367870397575643
-1,4,,20500,WCG,West Campus Garage,1,WCG,Garage Visitor,4,-96.344260000000006,30.608490000000000,300.000000000000000,1320,9791,,No,MECH,9791,,Billy Pickard Pedestrian Passageway,,,101 John Kimbrough Bl,College Station,77843,Billy Pickard Pedestrian Passageway |  | 9791,2.062295694445867,0.265174896342951
-1,6,,20600,CAG,Cain Garage,1,CAIN,Garage Visitor,6,-96.343549999999993,30.611490000000000,300.000000000000000,1320,9791,,No,MECH,9791,,Billy Pickard Pedestrian Passageway,,,101 John Kimbrough Bl,College Station,77843,Billy Pickard Pedestrian Passageway |  | 9791,2.062295694445867,0.265174896342951
-1,4,,20500,WCG,West Campus Garage,1,WCG,Garage Visitor,4,-96.344260000000006,30.608490000000000,300.000000000000000,1324,1544,CAIN,No,GARAGE,1544,,Cain Parking Garage,2016,05,500 Gene Stallings Bl,College Station,77843,Cain Parking Garage | CAIN | 1544,131.307907881568354,736.942811955148500
-1,6,,20600,CAG,Cain Garage,1,CAIN,Garage Visitor,6,-96.343549999999993,30.611490000000000,300.000000000000000,1324,1544,CAIN,No,GARAGE,1544,,Cain Parking Garage,2016,05,500 Gene Stallings Bl,College Station,77843,Cain Parking Garage | CAIN | 1544,131.307907881568354,736.942811955148500
-1,4,,20500,WCG,West Campus Garage,1,WCG,Garage Visitor,4,-96.344260000000006,30.608490000000000,300.000000000000000,1328,,,No,GARAGE,,,,,,,,, |  | ,74.729822593592075,21.524743080044150
-1,6,,20600,CAG,Cain Garage,1,CAIN,Garage Visitor,6,-96.343549999999993,30.611490000000000,300.000000000000000,1328,,,No,GARAGE,,,,,,,,, |  | ,74.729822593592075,21.524743080044150
-1,4,,20500,WCG,West Campus Garage,1,WCG,Garage Visitor,4,-96.344260000000006,30.608490000000000,300.000000000000000,1362,1545,,No,SERVICE PVT,1545,,Cain Site Hotel,,,177 Joe Routt BL,College Station,77843,Cain Site Hotel |  | 1545,240.908366909540547,2743.196826191251148
-1,6,,20600,CAG,Cain Garage,1,CAIN,Garage Visitor,6,-96.343549999999993,30.611490000000000,300.000000000000000,1362,1545,,No,SERVICE PVT,1545,,Cain Site Hotel,,,177 Joe Routt BL,College Station,77843,Cain Site Hotel |  | 1545,240.908366909540547,2743.196826191251148
-1,5,,20300,UCG,University Center Garage,1,UCG,Garage Visitor,5,-96.338650000000001,30.612050000000000,300.000000000000000,1023,0454,MSC,No,ACADEMIC,0454,MSC,Memorial Student Center,1951,04,275 Joe Routt Bl,College Station,77843,Memorial Student Center | MSC | 0454,534.433671450917700,11579.392518461581858
-1,6,,20600,CAG,Cain Garage,1,CAIN,Garage Visitor,6,-96.343549999999993,30.611490000000000,300.000000000000000,1023,0454,MSC,No,ACADEMIC,0454,MSC,Memorial Student Center,1951,04,275 Joe Routt Bl,College Station,77843,Memorial Student Center | MSC | 0454,534.433671450917700,11579.392518461581858
-1,5,,20300,UCG,University Center Garage,1,UCG,Garage Visitor,5,-96.338650000000001,30.612050000000000,300.000000000000000,1165,0367,KYLE,No,SPORTS,0367,KYLE,Kyle Field,1927,09,161 Wellborn Rd,College Station,77843,Kyle Field | KYLE | 0367,352.497609418446075,5393.329717710566911
-1,6,,20600,CAG,Cain Garage,1,CAIN,Garage Visitor,6,-96.343549999999993,30.611490000000000,300.000000000000000,1165,0367,KYLE,No,SPORTS,0367,KYLE,Kyle Field,1927,09,161 Wellborn Rd,College Station,77843,Kyle Field | KYLE | 0367,352.497609418446075,5393.329717710566911
-1,1,,20200,SSG,Southside Garage,1,SSG,Garage,1,-96.333619999999996,30.613730000000000,300.000000000000000,134,0402,BRIG,No,HOUSING TAMU,0402,BRIG,Briggs Hall - Dorm 3,1938,04,635 Military Mall,College Station,77843,Briggs Hall - Dorm 3 | BRIG | 0402,54.685238328795158,116.405527632970831
-1,2,,20400,CCG,Central Campus Garage,1,CCG,Garage Visitor,2,-96.337770000000006,30.616499999999998,300.000000000000000,134,0402,BRIG,No,HOUSING TAMU,0402,BRIG,Briggs Hall - Dorm 3,1938,04,635 Military Mall,College Station,77843,Briggs Hall - Dorm 3 | BRIG | 0402,54.685238328795158,116.405527632970831
-1,5,,20300,UCG,University Center Garage,1,UCG,Garage Visitor,5,-96.338650000000001,30.612050000000000,300.000000000000000,134,0402,BRIG,No,HOUSING TAMU,0402,BRIG,Briggs Hall - Dorm 3,1938,04,635 Military Mall,College Station,77843,Briggs Hall - Dorm 3 | BRIG | 0402,54.685238328795158,116.405527632970831
-1,1,,20200,SSG,Southside Garage,1,SSG,Garage,1,-96.333619999999996,30.613730000000000,300.000000000000000,1309,1405,ASH2,No,HOUSING TAMU,1405,ASH2,"Ash, II Leadership Learning Center",2016,04,621 Military Mall,College Station,77843,"Ash, II Leadership Learning Center | ASH2 | 1405",49.394569529080847,52.985814296765064
-1,2,,20400,CCG,Central Campus Garage,1,CCG,Garage Visitor,2,-96.337770000000006,30.616499999999998,300.000000000000000,1309,1405,ASH2,No,HOUSING TAMU,1405,ASH2,"Ash, II Leadership Learning Center",2016,04,621 Military Mall,College Station,77843,"Ash, II Leadership Learning Center | ASH2 | 1405",49.394569529080847,52.985814296765064
-1,5,,20300,UCG,University Center Garage,1,UCG,Garage Visitor,5,-96.338650000000001,30.612050000000000,300.000000000000000,1309,1405,ASH2,No,HOUSING TAMU,1405,ASH2,"Ash, II Leadership Learning Center",2016,04,621 Military Mall,College Station,77843,"Ash, II Leadership Learning Center | ASH2 | 1405",49.394569529080847,52.985814296765064
